[Satellite]
VERSION=1.1
NAME=STARLINK-5199
NICKNAME=STARLINK-5199
TLE1=1 54201U 22141AW  22321.58334491  .00065246  00000+0  46627-3 0  9999
TLE2=2 54201  53.2172  42.2221 0002857  16.6994 122.5689 15.73167886  1303
STATUS=0
